{
  "type": "FeatureCollection",
  "features": [
    {
      "type": "Feature",
      "properties": {
        "norad_id": 59626,
        "name": "LEGION 2",
        "group": "resource",
        "lat": -24.659238025944713,
        "lon": -130.52083241924365,
        "alt_km": 524.9283650205043,
        "timestamp": "2025-12-04T03:47:54.211685+00:00",
        "meta_object_name": "LEGION 2",
        "meta_object_id": "2024-081B",
        "meta_epoch": "2025-12-03T18:58:44.020128",
        "meta_mean_motion": 15.16346717,
        "meta_eccentricity": 0.0006201,
        "meta_inclination": 97.5233,
        "meta_ra_of_asc_node": 52.5932,
        "meta_arg_of_pericenter": 330.259,
        "meta_mean_anomaly": 29.829,
        "meta_ephemeris_type": 0,
        "meta_classification_type": "U",
        "meta_norad_cat_id": 59626,
        "meta_element_set_no": 999,
        "meta_rev_at_epoch": 8792,
        "meta_bstar": 0.00037939,
        "meta_mean_motion_dot": 7.297e-05,
        "meta_mean_motion_ddot": 0,
        "tle_line1": "1 59626U 24081B   25337.79078727  .00007297  00000+0  37939-3 0  9998",
        "tle_line2": "2 59626  97.5233  52.5932 0006201 330.2590  29.8290 15.16346717 87923"
      },
      "geometry": {
        "type": "Point",
        "coordinates": [
          -130.52083241924365,
          -24.659238025944713
        ]
      }
    },
    {
      "type": "Feature",
      "properties": {
        "norad_id": 60182,
        "name": "ALOS-4 (DAICHI-4)",
        "group": "resource",
        "lat": -75.94615945677747,
        "lon": 106.93089477320669,
        "alt_km": 639.2136380597085,
        "timestamp": "2025-12-04T03:47:54.211696+00:00",
        "meta_object_name": "ALOS-4 (DAICHI-4)",
        "meta_object_id": "2024-123A",
        "meta_epoch": "2025-11-30T09:15:12.370176",
        "meta_mean_motion": 14.79468497,
        "meta_eccentricity": 0.000127,
        "meta_inclination": 97.9232,
        "meta_ra_of_asc_node": 69.4089,
        "meta_arg_of_pericenter": 105.4124,
        "meta_mean_anomaly": 254.7228,
        "meta_ephemeris_type": 0,
        "meta_classification_type": "U",
        "meta_norad_cat_id": 60182,
        "meta_element_set_no": 999,
        "meta_rev_at_epoch": 7648,
        "meta_bstar": -8.429942e-06,
        "meta_mean_motion_dot": -1.14e-06,
        "meta_mean_motion_ddot": 0,
        "tle_line1": "1 60182U 24123A   25334.38555984 -.00000114  00000+0 -84299-5 0  9997",
        "tle_line2": "2 60182  97.9232  69.4089 0001270 105.4124 254.7228 14.79468497 76488"
      },
      "geometry": {
        "type": "Point",
        "coordinates": [
          106.93089477320669,
          -75.94615945677747
        ]
      }
    },
    {
      "type": "Feature",
      "properties": {
        "norad_id": 60452,
        "name": "LEGION 3",
        "group": "resource",
        "lat": -12.330170697395564,
        "lon": -171.23574292501635,
        "alt_km": 514.1410665216144,
        "timestamp": "2025-12-04T03:47:54.211706+00:00",
        "meta_object_name": "LEGION 3",
        "meta_object_id": "2024-146A",
        "meta_epoch": "2025-12-03T12:41:41.864064",
        "meta_mean_motion": 15.15602426,
        "meta_eccentricity": 0.00138,
        "meta_inclination": 45.0022,
        "meta_ra_of_asc_node": 359.5047,
        "meta_arg_of_pericenter": 146.3627,
        "meta_mean_anomaly": 213.813,
        "meta_ephemeris_type": 0,
        "meta_classification_type": "U",
        "meta_norad_cat_id": 60452,
        "meta_element_set_no": 999,
        "meta_rev_at_epoch": 7233,
        "meta_bstar": 0.00041995,
        "meta_mean_motion_dot": 7.872e-05,
        "meta_mean_motion_ddot": 0,
        "tle_line1": "1 60452U 24146A   25337.52895676  .00007872  00000+0  41995-3 0  9996",
        "tle_line2": "2 60452  45.0022 359.5047 0013800 146.3627 213.8130 15.15602426 72331"
      },
      "geometry": {
        "type": "Point",
        "coordinates": [
          -171.23574292501635,
          -12.330170697395564
        ]
      }
    },
    {
      "type": "Feature",
      "properties": {
        "norad_id": 60453,
        "name": "LEGION 4",
        "group": "resource",
        "lat": -8.66880228628007,
        "lon": -83.38126547826454,
        "alt_km": 518.1381255946417,
        "timestamp": "2025-12-04T03:47:54.211717+00:00",
        "meta_object_name": "LEGION 4",
        "meta_object_id": "2024-146B",
        "meta_epoch": "2025-12-03T17:27:44.436960",
        "meta_mean_motion": 15.15667965,
        "meta_eccentricity": 0.0009913,
        "meta_inclination": 45.0383,
        "meta_ra_of_asc_node": 90.1627,
        "meta_arg_of_pericenter": 264.1666,
        "meta_mean_anomaly": 95.8083,
        "meta_ephemeris_type": 0,
        "meta_classification_type": "U",
        "meta_norad_cat_id": 60453,
        "meta_element_set_no": 999,
        "meta_rev_at_epoch": 7121,
        "meta_bstar": 0.00050329,
        "meta_mean_motion_dot": 9.498e-05,
        "meta_mean_motion_ddot": 0,
        "tle_line1": "1 60453U 24146B   25337.72759765  .00009498  00000+0  50329-3 0  9994",
        "tle_line2": "2 60453  45.0383  90.1627 0009913 264.1666  95.8083 15.15667965 71216"
      },
      "geometry": {
        "type": "Point",
        "coordinates": [
          -83.38126547826454,
          -8.66880228628007
        ]
      }
    },
    {
      "type": "Feature",
      "properties": {
        "norad_id": 60989,
        "name": "SENTINEL-2C",
        "group": "resource",
        "lat": 71.72163153958633,
        "lon": -102.10125992106504,
        "alt_km": 781.2255747092595,
        "timestamp": "2025-12-04T03:47:54.211727+00:00",
        "meta_object_name": "SENTINEL-2C",
        "meta_object_id": "2024-157A",
        "meta_epoch": "2025-12-03T17:14:02.854176",
        "meta_mean_motion": 14.30824272,
        "meta_eccentricity": 0.0001142,
        "meta_inclination": 98.5613,
        "meta_ra_of_asc_node": 50.3311,
        "meta_arg_of_pericenter": 101.8522,
        "meta_mean_anomaly": 258.2789,
        "meta_ephemeris_type": 0,
        "meta_classification_type": "U",
        "meta_norad_cat_id": 60989,
        "meta_element_set_no": 999,
        "meta_rev_at_epoch": 6503,
        "meta_bstar": 0.00011011,
        "meta_mean_motion_dot": 2.45e-06,
        "meta_mean_motion_ddot": 0,
        "tle_line1": "1 60989U 24157A   25337.71808859  .00000245  00000+0  11011-3 0  9994",
        "tle_line2": "2 60989  98.5613  50.3311 0001142 101.8522 258.2789 14.30824272 65034"
      },
      "geometry": {
        "type": "Point",
        "coordinates": [
          -102.10125992106504,
          71.72163153958633
        ]
      }
    },
    {
      "type": "Feature",
      "properties": {
        "norad_id": 61735,
        "name": "IONOSFERA-M 1",
        "group": "resource",
        "lat": -78.45099115774246,
        "lon": -20.770580177330793,
        "alt_km": 824.152789616377,
        "timestamp": "2025-12-04T03:47:54.211737+00:00",
        "meta_object_name": "IONOSFERA-M 1",
        "meta_object_id": "2024-199A",
        "meta_epoch": "2025-12-03T19:49:01.604928",
        "meta_mean_motion": 14.22710804,
        "meta_eccentricity": 0.0001353,
        "meta_inclination": 98.7409,
        "meta_ra_of_asc_node": 207.7419,
        "meta_arg_of_pericenter": 34.2206,
        "meta_mean_anomaly": 325.9059,
        "meta_ephemeris_type": 0,
        "meta_classification_type": "U",
        "meta_norad_cat_id": 61735,
        "meta_element_set_no": 999,
        "meta_rev_at_epoch": 9992,
        "meta_bstar": 7.7572e-05,
        "meta_mean_motion_dot": 1.3e-06,
        "meta_mean_motion_ddot": 0,
        "tle_line1": "1 61735U 24199A   25337.82571302  .00000130  00000+0  77572-4 0  9990",
        "tle_line2": "2 61735  98.7409 207.7419 0001353  34.2206 325.9059 14.22710804 99921"
      },
      "geometry": {
        "type": "Point",
        "coordinates": [
          -20.770580177330793,
          -78.45099115774246
        ]
      }
    },
    {
      "type": "Feature",
      "properties": {
        "norad_id": 61736,
        "name": "IONOSFERA-M 2",
        "group": "resource",
        "lat": 79.93580213750796,
        "lon": 147.89231732240606,
        "alt_km": 807.9586425547159,
        "timestamp": "2025-12-04T03:47:54.211747+00:00",
        "meta_object_name": "IONOSFERA-M 2",
        "meta_object_id": "2024-199B",
        "meta_epoch": "2025-12-03T20:38:56.070816",
        "meta_mean_motion": 14.227129,
        "meta_eccentricity": 0.0001399,
        "meta_inclination": 98.7407,
        "meta_ra_of_asc_node": 207.6889,
        "meta_arg_of_pericenter": 121.168,
        "meta_mean_anomaly": 238.9635,
        "meta_ephemeris_type": 0,
        "meta_classification_type": "U",
        "meta_norad_cat_id": 61736,
        "meta_element_set_no": 999,
        "meta_rev_at_epoch": 10305,
        "meta_bstar": 7.9179e-05,
        "meta_mean_motion_dot": 1.33e-06,
        "meta_mean_motion_ddot": 0,
        "tle_line1": "1 61736U 24199B   25337.86037119  .00000133  00000+0  79179-4 0  9996",
        "tle_line2": "2 61736  98.7407 207.6889 0001399 121.1680 238.9635 14.22712900103054"
      },
      "geometry": {
        "type": "Point",
        "coordinates": [
          147.89231732240606,
          79.93580213750796
        ]
      }
    }
  ]
}